OBJECT_NAME,OBJECT_ID,EPOCH,MEAN_MOTION,ECCENTRICITY,INCLINATION,RA_OF_ASC_NODE,ARG_OF_PERICENTER,MEAN_ANOMALY,EPHEMERIS_TYPE,CLASSIFICATION_TYPE,NORAD_CAT_ID,ELEMENT_SET_NO,REV_AT_EPOCH,BSTAR,MEAN_MOTION_DOT,MEAN_MOTION_DDOT
STARLINK-4447,2022-099H,2025-05-24T18:43:45.112800,15.01257329,.0001879,97.6525,266.7345,207.6359,152.4765,0,U,53472,999,15263,.16015E-4,.147E-5,0
STARLINK-4383,2022-099J,2025-05-25T00:59:40.238016,15.01257418,.0005163,97.6550,266.9815,194.0828,166.0253,0,U,53473,999,15291,.12298E-4,.99E-6,0
STARLINK-4445,2022-099K,2025-05-24T18:25:26.790816,15.01261506,.0004033,97.6556,266.7120,159.5757,200.5629,0,U,53474,999,15263,.69416E-4,.833E-5,0
STARLINK-4389,2022-099L,2025-05-25T00:57:00.170784,15.01257317,.0003205,97.6551,266.9792,205.2528,154.8540,0,U,53475,999,15291,.14642E-4,.129E-5,0
STARLINK-4378,2022-099M,2025-05-24T13:50:28.277088,15.01259607,.0003829,97.6548,266.5241,215.0589,145.0384,0,U,53476,999,15260,.80588E-5,.44E-6,0
STARLINK-4412,2022-099N,2025-05-24T18:54:25.570080,15.01258923,.0001254,97.6546,266.7033,96.3024,263.8343,0,U,53477,999,15333,.40186E-5,-.7E-7,0
STARLINK-4433,2022-099P,2025-05-24T18:27:45.389376,15.01257282,.0004712,97.6553,266.7263,169.0472,191.0855,0,U,53478,999,15263,.88435E-4,.1077E-4,0
STARLINK-4436,2022-099Q,2025-05-24T18:25:05.995200,15.01264875,.0003504,97.6552,266.7119,160.4989,199.6370,0,U,53479,999,15263,.31961E-3,.4049E-4,0
STARLINK-4442,2022-099R,2025-05-24T21:42:22.802112,15.01260203,.0003854,97.6554,266.8460,179.4951,180.6277,0,U,53480,999,15289,.394E-4,.447E-5,0
STARLINK-4302,2022-099S,2025-05-24T21:34:23.484288,15.01258014,.000498,97.6570,266.8437,148.4514,211.7009,0,U,53481,999,15289,.30046E-4,.327E-5,0
STARLINK-4360,2022-099T,2025-05-23T18:08:34.651104,14.99839554,.0001006,97.6568,265.7533,79.8651,280.2686,0,U,53482,999,15248,-.14781E-1,-.178432E-2,0
STARLINK-4401,2022-099U,2025-05-25T04:30:16.203456,15.08854899,.0001718,97.6735,267.2785,87.1307,273.0118,0,U,53483,999,15294,.12733E-1,.206165E-2,0
STARLINK-4426,2022-099V,2025-05-24T18:19:45.878880,15.01261303,.0004068,97.6590,266.7146,140.7726,219.3794,0,U,53484,999,15263,.50671E-4,.592E-5,0
STARLINK-4430,2022-099W,2025-05-24T18:11:45.825792,15.01261741,.0001745,97.6575,266.7154,104.0928,256.0490,0,U,53485,999,15263,.59184E-4,.701E-5,0
STARLINK-4431,2022-099X,2025-05-23T18:18:06.206976,15.00805459,.0004879,97.6577,265.7289,143.0118,217.1443,0,U,53486,999,15248,-.43165E-2,-.54439E-3,0
STARLINK-4432,2022-099Y,2025-05-24T21:25:55.032384,15.03829985,.0006562,97.6523,266.8360,301.4776,58.5808,0,U,53487,999,15289,.26459E-1,.384045E-2,0
STARLINK-4421,2022-099Z,2025-05-24T21:26:23.402688,15.01261076,.0002444,97.6581,266.8462,145.0910,215.0474,0,U,53488,999,15289,.4594E-4,.531E-5,0
STARLINK-4392,2022-099AA,2025-05-25T02:14:40.214400,15.01293699,.0002925,97.6579,267.0265,142.0421,218.1010,0,U,53489,999,15292,-.55691E-3,-.7212E-4,0
STARLINK-4387,2022-099AB,2025-05-25T02:06:16.132608,15.01446204,.0004527,97.6549,267.0476,288.3500,71.7231,0,U,53490,999,15292,.16488E-2,.2129E-3,0
STARLINK-4450,2022-099AC,2025-05-25T01:53:21.450336,15.01247524,.000212,97.6564,267.0446,89.8094,270.3373,0,U,53491,999,15292,.21904E-3,.2755E-4,0
STARLINK-4451,2022-099AD,2025-05-25T02:00:59.934528,15.01255008,.0001474,97.6567,267.0452,98.7942,261.3450,0,U,53492,999,15292,.18218E-4,.175E-5,0
STARLINK-4361,2022-099AE,2025-05-25T02:05:24.379008,15.00448501,.0001627,97.6586,267.0303,89.3706,270.7704,0,U,53493,999,15292,.12066E-3,.1459E-4,0
STARLINK-4340,2022-099AF,2025-05-24T13:16:10.099488,15.01257528,.0000642,97.6567,266.5117,137.0008,223.1266,0,U,53494,999,15284,.10729E-3,.1319E-4,0
STARLINK-4429,2022-099AG,2025-05-25T01:50:20.006016,15.01262502,.0001915,97.6556,267.0345,86.9426,273.2018,0,U,53495,999,15293,.13149E-3,.163E-4,0
STARLINK-4465,2022-099AH,2025-05-24T19:31:44.690016,15.01260565,.0001009,97.6564,266.7756,98.0805,262.0534,0,U,53496,999,15264,.35223E-4,.393E-5,0
STARLINK-4453,2022-099AJ,2025-05-25T01:45:01.315296,15.01239869,.0002756,97.6554,267.0310,83.8053,276.3485,0,U,53497,999,15292,.37315E-3,.4735E-4,0
STARLINK-4439,2022-099AK,2025-05-25T01:45:21.335040,15.01259339,.0002291,97.6556,267.0433,88.9874,271.1612,0,U,53498,999,15292,.86511E-4,.1052E-4,0
STARLINK-4454,2022-099AL,2025-05-25T01:53:00.204576,15.01258855,.0002238,97.6561,267.0199,90.2387,269.9094,0,U,53499,999,15292,.46698E-4,.541E-5,0
STARLINK-4455,2022-099AM,2025-05-24T20:59:43.999584,15.01257439,.0002406,97.6556,266.8353,87.7508,272.3991,0,U,53500,999,15290,.17266E-4,.163E-5,0
STARLINK-4434,2022-099AN,2025-05-24T22:22:24.672000,15.01224347,.0002971,97.6546,266.8918,83.4110,276.7452,0,U,53501,999,15290,-.11537E-3,-.1539E-4,0
