STARLINK-4447           
1 53472U 22099H   25144.78038325  .00000147  00000+0  16015-4 0  9993
2 53472  97.6525 266.7345 0001879 207.6359 152.4765 15.01257329152639
STARLINK-4383           
1 53473U 22099J   25145.04143794  .00000099  00000+0  12298-4 0  9996
2 53473  97.6550 266.9815 0005163 194.0828 166.0253 15.01257418152915
STARLINK-4445           
1 53474U 22099K   25144.76767119  .00000833  00000+0  69416-4 0  9998
2 53474  97.6556 266.7120 0004033 159.5757 200.5629 15.01261506152634
STARLINK-4389           
1 53475U 22099L   25145.03958531  .00000129  00000+0  14642-4 0  9999
2 53475  97.6551 266.9792 0003205 205.2528 154.8540 15.01257317152911
STARLINK-4378           
1 53476U 22099M   25144.57671617  .00000044  00000+0  80588-5 0  9994
2 53476  97.6548 266.5241 0003829 215.0589 145.0384 15.01259607152609
STARLINK-4412           
1 53477U 22099N   25144.78779595 -.00000007  00000+0  40186-5 0  9992
2 53477  97.6546 266.7033 0001254  96.3024 263.8343 15.01258923153338
STARLINK-4433           
1 53478U 22099P   25144.76927534  .00001077  00000+0  88435-4 0  9994
2 53478  97.6553 266.7263 0004712 169.0472 191.0855 15.01257282152638
STARLINK-4436           
1 53479U 22099Q   25144.76743050  .00004049  00000+0  31961-3 0  9997
2 53479  97.6552 266.7119 0003504 160.4989 199.6370 15.01264875152636
STARLINK-4442           
1 53480U 22099R   25144.90443058  .00000447  00000+0  39400-4 0  9995
2 53480  97.6554 266.8460 0003854 179.4951 180.6277 15.01260203152892
STARLINK-4302           
1 53481U 22099S   25144.89888292  .00000327  00000+0  30046-4 0  9991
2 53481  97.6570 266.8437 0004980 148.4514 211.7009 15.01258014152893
STARLINK-4360           
1 53482U 22099T   25143.75595661 -.00178432  00000+0 -14781-1 0  9991
2 53482  97.6568 265.7533 0001006  79.8651 280.2686 14.99839554152488
STARLINK-4401           
1 53483U 22099U   25145.18768754  .00206165  00000+0  12733-1 0  9994
2 53483  97.6735 267.2785 0001718  87.1307 273.0118 15.08854899152942
STARLINK-4426           
1 53484U 22099V   25144.76372545  .00000592  00000+0  50671-4 0  9999
2 53484  97.6590 266.7146 0004068 140.7726 219.3794 15.01261303152633
STARLINK-4430           
1 53485U 22099W   25144.75816928  .00000701  00000+0  59184-4 0  9997
2 53485  97.6575 266.7154 0001745 104.0928 256.0490 15.01261741152639
STARLINK-4431           
1 53486U 22099X   25143.76257184 -.00054439  00000+0 -43165-2 0  9990
2 53486  97.6577 265.7289 0004879 143.0118 217.1443 15.00805459152483
STARLINK-4432           
1 53487U 22099Y   25144.89299806  .00384045  00000+0  26459-1 0  9996
2 53487  97.6523 266.8360 0006562 301.4776  58.5808 15.03829985152898
STARLINK-4421           
1 53488U 22099Z   25144.89332642  .00000531  00000+0  45940-4 0  9997
2 53488  97.6581 266.8462 0002444 145.0910 215.0474 15.01261076152891
STARLINK-4392           
1 53489U 22099AA  25145.09352100 -.00007212  00000+0 -55691-3 0  9990
2 53489  97.6579 267.0265 0002925 142.0421 218.1010 15.01293699152921
STARLINK-4387           
1 53490U 22099AB  25145.08768672  .00021290  00000+0  16488-2 0  9996
2 53490  97.6549 267.0476 0004527 288.3500  71.7231 15.01446204152926
STARLINK-4450           
1 53491U 22099AC  25145.07872049  .00002755  00000+0  21904-3 0  9995
2 53491  97.6564 267.0446 0002120  89.8094 270.3373 15.01247524152928
STARLINK-4451           
1 53492U 22099AD  25145.08402702  .00000175  00000+0  18218-4 0  9991
2 53492  97.6567 267.0452 0001474  98.7942 261.3450 15.01255008152923
STARLINK-4361           
1 53493U 22099AE  25145.08708772  .00001459  00000+0  12066-3 0  9998
2 53493  97.6586 267.0303 0001627  89.3706 270.7704 15.00448501152921
STARLINK-4340           
1 53494U 22099AF  25144.55289467  .00001319  00000+0  10729-3 0  9994
2 53494  97.6567 266.5117 0000642 137.0008 223.1266 15.01257528152844
STARLINK-4429           
1 53495U 22099AG  25145.07662044  .00001630  00000+0  13149-3 0  9994
2 53495  97.6556 267.0345 0001915  86.9426 273.2018 15.01262502152931
STARLINK-4465           
1 53496U 22099AH  25144.81371169  .00000393  00000+0  35223-4 0  9994
2 53496  97.6564 266.7756 0001009  98.0805 262.0534 15.01260565152646
STARLINK-4453           
1 53497U 22099AJ  25145.07293189  .00004735  00000+0  37315-3 0  9996
2 53497  97.6554 267.0310 0002756  83.8053 276.3485 15.01239869152920
STARLINK-4439           
1 53498U 22099AK  25145.07316360  .00001052  00000+0  86511-4 0  9996
2 53498  97.6556 267.0433 0002291  88.9874 271.1612 15.01259339152929
STARLINK-4454           
1 53499U 22099AL  25145.07847459  .00000541  00000+0  46698-4 0  9999
2 53499  97.6561 267.0199 0002238  90.2387 269.9094 15.01258855152922
STARLINK-4455           
1 53500U 22099AM  25144.87481481  .00000163  00000+0  17266-4 0  9997
2 53500  97.6556 266.8353 0002406  87.7508 272.3991 15.01257439152900
STARLINK-4434           
1 53501U 22099AN  25144.93223000 -.00001539  00000+0 -11537-3 0  9990
2 53501  97.6546 266.8918 0002971  83.4110 276.7452 15.01224347152908
